NORAD_CAT_ID,OBJECT_NAME,OBJECT_TYPE,EPOCH,MEAN_MOTION,ECCENTRICITY,INCLINATION,RA_OF_ASC_NODE,ARG_OF_PERICENTER,MEAN_ANOMALY,BSTAR,MEAN_MOTION_DOT,MEAN_MOTION_DDOT,TLE_LINE0,TLE_LINE1,TLE_LINE2,SEMIMAJOR_AXIS,PERIOD,APOGEE,PERIGEE,DECAYED
52673.0,STARLINK-3976,PAYLOAD,2022-08-05 14:00:01,15.08813269,0.0002038,53.2176,284.3816,44.0438,122.8187,0.0020695,0.00032778,0.0,0 STARLINK-3976,1 52673U 22053T   22217.58335648  .00032778  00000-0  20695-2 0  9992,2 52673  53.2176 284.3816 0002038  44.0438 122.8187 15.08813269  1303,6917.962,95.439,541.237,538.4169999999998,0.0
52673.0,STARLINK-3976,PAYLOAD,2022-08-05 22:00:00,15.08839382,0.0001879,53.2174,282.8839,47.2131,131.167,-0.00068941,-0.00011243,0.0,0 STARLINK-3976,1 52673U 22053T   22217.91667824 -.00011243  00000-0 -68941-3 0  9996,2 52673  53.2174 282.8839 0001879  47.2131 131.1670 15.08839382 12582,6917.882,95.438,541.047,538.447,0.0
52673.0,STARLINK-3976,PAYLOAD,2022-08-06 13:06:38,15.08838627,0.0002070999999999,53.2186,280.0582,50.8957,309.2219,1.8797e-05,1.1e-07,0.0,0 STARLINK-3976,1 52673U 22053T   22218.54628020  .00000011  00000-0  18797-4 0  9995,2 52673  53.2186 280.0582 0002071  50.8957 309.2219 15.08838627 13108,6917.885,95.438,541.182,538.317,0.0
52673.0,STARLINK-3976,PAYLOAD,2022-08-06 20:00:01,15.08857432,0.0001952,53.2169,278.7693,46.9996,73.2559,-0.0019749,-0.00031597,0.0,0 STARLINK-3976,1 52673U 22053T   22218.83334491 -.00031597  00000-0 -19749-2 0  9994,2 52673  53.2169 278.7693 0001952  46.9996  73.2559 15.08857432 12729,6917.8269999999975,95.436,541.0419999999998,538.342,0.0
52673.0,STARLINK-3976,PAYLOAD,2022-08-06 22:00:00,15.08843152,0.0001884,53.217,278.3948,48.3056,164.855,-0.00027429,-4.651e-05,0.0,0 STARLINK-3976,1 52673U 22053T   22218.91667824 -.00004651  00000-0 -27429-3 0  9998,2 52673  53.2170 278.3948 0001884  48.3056 164.8550 15.08843152  1301,6917.871,95.437,541.039,538.432,0.0
52673.0,STARLINK-3976,PAYLOAD,2022-08-07 11:22:02,15.08842163,0.0001981,53.2179,275.8948,49.0562,311.0601,0.00015255,2.141e-05,0.0,0 STARLINK-3976,1 52673U 22053T   22219.47363583  .00002141  00000-0  15255-3 0  9999,2 52673  53.2179 275.8948 0001981  49.0562 311.0601 15.08842163 13240,6917.874,95.437,541.109,538.368,0.0
52673.0,STARLINK-3976,PAYLOAD,2022-08-07 12:00:00,15.08846473,0.0002041,53.2169,275.7777,46.3261,97.1366,-0.00056786,-9.316e-05,0.0,0 STARLINK-3976,1 52673U 22053T   22219.50001157 -.00009316  00000-0 -56786-3 0  9996,2 52673  53.2169 275.7777 0002041  46.3261  97.1366 15.08846473 12823,6917.861,95.437,541.138,538.314,0.0
52673.0,STARLINK-3976,PAYLOAD,2022-08-07 22:00:00,15.088269699999998,0.0001841999999999,53.2167,273.9057,46.243,201.7282,-8.6351e-05,-1.662e-05,0.0,0 STARLINK-3976,1 52673U 22053T   22219.91667824 -.00001662  00000-0 -86351-4 0  9998,2 52673  53.2167 273.9057 0001842  46.2430 201.7282 15.08826970  1308,6917.92,95.438,541.059,538.511,0.0
52673.0,STARLINK-3976,PAYLOAD,2022-08-08 03:15:52,15.08853009,0.0002006999999999,53.2178,272.9207,50.0244,310.0925,0.00019771,2.861e-05,0.0,0 STARLINK-3976,1 52673U 22053T   22220.13602813  .00002861  00000-0  19771-3 0  9992,2 52673  53.2178 272.9207 0002007  50.0244 310.0925 15.08853009 12916,6917.840999999999,95.437,541.094,538.317,0.0
52673.0,STARLINK-3976,PAYLOAD,2022-08-08 14:00:01,15.08818651,0.0002061,53.2165,270.9148,43.0625,228.1532,0.0032716999999999,0.00052137,0.0,0 STARLINK-3976,1 52673U 22053T   22220.58335648  .00052137  00000-0  32717-2 0  9995,2 52673  53.2165 270.9148 0002061  43.0625 228.1532 15.08818651 12983,6917.946,95.439,541.236,538.385,0.0
52673.0,STARLINK-3976,PAYLOAD,2022-08-08 22:00:00,15.08845944,0.0001892,53.2165,269.4167,45.9872,236.7663,0.00072393,0.00011254,0.0,0 STARLINK-3976,1 52673U 22053T   22220.91667824  .00011254  00000-0  72393-3 0  9996,2 52673  53.2165 269.4167 0001892  45.9872 236.7663 15.08845944  1302,6917.861999999999,95.437,541.036,538.418,0.0
52673.0,STARLINK-3976,PAYLOAD,2022-08-09 04:00:00,15.08866423,0.000188,53.2165,268.2945,48.6321,152.8171,-0.0025224,-0.00040238,0.0,0 STARLINK-3976,1 52673U 22053T   22221.16667824 -.00040238  00000-0 -25224-2 0  9990,2 52673  53.2165 268.2945 0001880  48.6321 152.8171 15.08866423 13073,6917.8,95.436,540.965,538.364,0.0
52673.0,STARLINK-3976,PAYLOAD,2022-08-09 14:00:01,15.08823264,0.0002024,53.2163,266.4258,39.5075,266.4482,0.00062027,9.593e-05,0.0,0 STARLINK-3976,1 52673U 22053T   22221.58334491  .00009593  00000-0  62027-3 0  9997,2 52673  53.2163 266.4258 0002024  39.5075 266.4482 15.08823264  1300,6917.932,95.439,541.197,538.396,0.0
52673.0,STARLINK-3976,PAYLOAD,2022-08-09 22:00:00,15.08798383,0.0001827,53.2165,264.9277,41.5009,276.0449,0.0016783,0.00026493,0.0,0 STARLINK-3976,1 52673U 22053T   22221.91667824  .00026493  00000-0  16783-2 0  9998,2 52673  53.2165 264.9277 0001827  41.5009 276.0449 15.08798383  1309,6918.0080000000025,95.44,541.137,538.609,0.0
52673.0,STARLINK-3976,PAYLOAD,2022-08-10 04:00:00,15.08823066,0.0001858,53.2165,263.8056,44.703,191.502,0.00012224,1.657e-05,0.0,0 STARLINK-3976,1 52673U 22053T   22222.16667824  .00001657  00000-0  12224-3 0  9998,2 52673  53.2165 263.8056 0001858  44.7030 191.5020 15.08823066 13222,6917.932,95.439,541.0830000000002,538.512,0.0
52673.0,STARLINK-3976,PAYLOAD,2022-08-10 14:00:01,15.08802677,0.0002069,53.2162,261.9368,38.2347,302.4402,0.0027055,0.00042989,0.0,0 STARLINK-3976,1 52673U 22053T   22222.58334491  .00042989  00000-0  27055-2 0  9995,2 52673  53.2162 261.9368 0002069  38.2347 302.4402 15.08802677  1306,6917.994000000002,95.44,541.2909999999998,538.428,0.0
52673.0,STARLINK-3976,PAYLOAD,2022-08-10 22:00:00,15.0880723,0.0001895,53.2164,260.4388,42.589,309.6614,0.0020027,0.000317,0.0,0 STARLINK-3976,1 52673U 22053T   22222.91667824  .00031700  00000-0  20027-2 0  9992,2 52673  53.2164 260.4388 0001895  42.5890 309.6614 15.08807230  1305,6917.981,95.44,541.1569999999998,538.535,0.0
52673.0,STARLINK-3976,PAYLOAD,2022-08-11 14:00:01,15.08817025,0.0002121999999999,53.2161,257.4477,38.7265,336.6803,0.0022074,0.00034996,0.0,0 STARLINK-3976,1 52673U 22053T   22223.58334491  .00034996  00000-0  22074-2 0  9991,2 52673  53.2161 257.4477 0002122  38.7265 336.6803 15.08817025  1307,6917.951,95.439,541.284,538.3480000000002,0.0
52673.0,STARLINK-3976,PAYLOAD,2022-08-11 20:00:01,15.08838378,0.0001983,53.2163,256.324,42.2579,251.8359,-0.00070573,-0.00011502,0.0,0 STARLINK-3976,1 52673U 22053T   22223.83334491 -.00011502  00000-0 -70573-3 0  9997,2 52673  53.2163 256.3240 0001983  42.2579 251.8359 15.08838378 13476,6917.885,95.438,541.122,538.379,0.0
52673.0,STARLINK-3976,PAYLOAD,2022-08-12 14:00:01,15.08833622,0.0002138,53.2158,252.9583,39.4225,10.7617,0.0018422,0.00029148,0.0,0 STARLINK-3976,1 52673U 22053T   22224.58334491  .00029148  00000-0  18422-2 0  9997,2 52673  53.2158 252.9583 0002138  39.4225  10.7617 15.08833622  1306,6917.9,95.438,541.244,538.286,0.0
52673.0,STARLINK-3976,PAYLOAD,2022-08-12 22:00:01,15.08825513,0.0001924,53.2159,251.4601,44.7446,17.1102,0.002629,0.00041785,0.0,0 STARLINK-3976,1 52673U 22053T   22224.91668981  .00041785  00000-0  26290-2 0  9991,2 52673  53.2159 251.4601 0001924  44.7446  17.1102 15.08825513  1308,6917.925,95.438,541.121,538.4590000000002,0.0
52673.0,STARLINK-3976,PAYLOAD,2022-08-13 04:00:00,15.08865464,0.0001966999999999,53.2161,250.3383,45.7691,294.7105,-0.001168,-0.00018842,0.0,0 STARLINK-3976,1 52673U 22053T   22225.16667824 -.00018842  00000-0 -11680-2 0  9991,2 52673  53.2161 250.3383 0001967  45.7691 294.7105 15.08865464 13674,6917.803000000001,95.436,541.028,538.307,0.0
52673.0,STARLINK-3976,PAYLOAD,2022-08-13 14:00:01,15.08842588,0.0002097,53.2155,248.4688,39.0749,45.922,-0.0011087999999999,-0.00017893,0.0,0 STARLINK-3976,1 52673U 22053T   22225.58334491 -.00017893  00000-0 -11088-2 0  9995,2 52673  53.2155 248.4688 0002097  39.0749  45.9220 15.08842588  1301,6917.871999999999,95.437,541.188,538.2869999999998,0.0
52673.0,STARLINK-3976,PAYLOAD,2022-08-13 22:00:00,15.0880407,0.000186,53.2155,246.9707,43.5916,53.0042,0.0025716,0.00040836,0.0,0 STARLINK-3976,1 52673U 22053T   22225.91667824  .00040836  00000-0  25716-2 0  9995,2 52673  53.2155 246.9707 0001860  43.5916  53.0042 15.08804070  1305,6917.99,95.44,541.1419999999998,538.568,0.0
52673.0,STARLINK-3976,PAYLOAD,2022-08-14 06:00:02,15.0883764,0.0001968,53.2164,245.4778,44.5282,63.6984,-0.0010665999999999,-0.00017222,0.0,0 STARLINK-3976,1 52673U 22053T   22226.25002315 -.00017222  00000-0 -10666-2 0  9994,2 52673  53.2164 245.4778 0001968  44.5282  63.6984 15.08837640 13846,6917.888000000001,95.438,541.114,538.391,0.0
52673.0,STARLINK-3976,PAYLOAD,2022-08-14 14:00:01,15.08827417,0.0002104,53.2152,243.9794,39.8425,79.9078,0.00074082,0.00011518,0.0,0 STARLINK-3976,1 52673U 22053T   22226.58334491  .00011518  00000-0  74082-3 0  9996,2 52673  53.2152 243.9794 0002104  39.8425  79.9078 15.08827417  1306,6917.919,95.438,541.239,538.328,0.0
52673.0,STARLINK-3976,PAYLOAD,2022-08-14 22:00:00,15.08812681,0.000192,53.2153,242.4813,45.2966,86.0468,0.0025242,0.00040084,0.0,0 STARLINK-3976,1 52673U 22053T   22226.91667824  .00040084  00000-0  25242-2 0  9995,2 52673  53.2153 242.4813 0001920  45.2966  86.0468 15.08812681  1308,6917.964,95.439,541.1569999999998,538.501,0.0
52673.0,STARLINK-3976,PAYLOAD,2022-08-15 06:00:00,15.08847757,0.0002075,53.2154,240.9862,44.4559,98.466,-0.0016777,-0.00026896,0.0,0 STARLINK-3976,1 52673U 22053T   22227.25001157 -.00026896  00000-0 -16777-2 0  9994,2 52673  53.2154 240.9862 0002075  44.4559  98.4660 15.08847757 13998,6917.857,95.437,541.1569999999998,538.286,0.0
52673.0,STARLINK-3976,PAYLOAD,2022-08-15 14:00:01,15.08837496,0.0002165,53.2152,239.49,41.2549,113.2554,0.00016557,2.348e-05,0.0,0 STARLINK-3976,1 52673U 22053T   22227.58334491  .00002348  00000-0  16557-3 0  9991,2 52673  53.2152 239.4900 0002165  41.2549 113.2554 15.08837496  1305,6917.888000000001,95.438,541.251,538.255,0.0
